{"type": "FeatureCollection", "features": [{"type": "Feature", "properties": {"operator": "Chargy", "amenity": "charging_station", "name": "Chargy Ok - Commune Boulaide - Parking Cimeti\u00e8re", "brand": "Chargy", "opening_hours": "24/7", "car": "yes", "phone": "+352 80062020", "authentication:membership_card": "yes", "devices": 1, "ref:chargy": "1763", "socket:type2:output": "22kW", "socket:type2": 2, "capacity": 2}, "geometry": {"type": "Point", "coordinates": [5.814634, 49.887316]}}, {"type": "Feature", "properties": {"operator": "Chargy", "amenity": "charging_station", "name": "Chargy Ok - Commune Bettendorf - route de Diekirch", "brand": "Chargy", "opening_hours": "24/7", "car": "yes", "phone": "+352 80062020", "authentication:membership_card": "yes", "devices": 2, "ref:chargy": "4656;4655", "socket:type2:output": "22kW", "socket:type2": 2, "capacity": 2}, "geometry": {"type": "Point", "coordinates": [6.21797, 49.876274]}}, {"type": "Feature", "properties": {"operator": "Chargy", "amenity": "charging_station", "name": "Chargy Ok - Commune Ettelbruck - Gare", "brand": "Chargy", "opening_hours": "24/7", "car": "yes", "phone": "+352 80062020", "authentication:membership_card": "yes", "devices": 2, "ref:chargy": "4662;4663", "socket:type2:output": "22kW", "socket:type2": 2, "capacity": 2}, "geometry": {"type": "Point", "coordinates": [6.107, 49.8477]}}, {"type": "Feature", "properties": {"operator": "Chargy", "amenity": "charging_station", "name": "Chargy Ok - Parking souterrain TOPAZE", "brand": "Chargy", "opening_hours": "24/7", "car": "yes", "phone": "+352 80062020", "authentication:membership_card": "yes", "devices": 1, "ref:chargy": "1772", "socket:type2:output": "22kW", "socket:type2": 2, "capacity": 2}, "geometry": {"type": "Point", "coordinates": [6.098552, 49.757484]}}, {"type": "Feature", "properties": {"operator": "Chargy", "amenity": "charging_station", "name": "Chargy Ok - Commune Diekirch - Place Guillaume", "brand": "Chargy", "opening_hours": "24/7", "car": "yes", "phone": "+352 80062020", "authentication:membership_card": "yes", "devices": 2, "ref:chargy": "4659;4658", "socket:type2:output": "22kW", "socket:type2": 2, "capacity": 2}, "geometry": {"type": "Point", "coordinates": [6.1579, 49.8698]}}, {"type": "Feature", "properties": {"operator": "Chargy", "amenity": "charging_station", "name": "Chargy Ok - Commune Colmar-Berg - rue de l'Ecole", "brand": "Chargy", "opening_hours": "24/7", "car": "yes", "phone": "+352 80062020", "authentication:membership_card": "yes", "devices": 2, "ref:chargy": "4676;4675", "socket:type2:output": "22kW", "socket:type2": 2, "capacity": 2}, "geometry": {"type": "Point", "coordinates": [6.093, 49.8095]}}, {"type": "Feature", "properties": {"operator": "Chargy", "amenity": "charging_station", "name": "Koerich - Parking Mairie", "brand": "Chargy", "opening_hours": "24/7", "car": "yes", "phone": "+352 80062020", "authentication:membership_card": "yes", "devices": 1, "ref:chargy": "1842", "socket:type2:output": "22kW", "socket:type2": 2, "capacity": 2}, "geometry": {"type": "Point", "coordinates": [5.949051, 49.669717]}}, {"type": "Feature", "properties": {"operator": "Chargy", "amenity": "charging_station", "name": "Chargy Ok - Commune Schieren - rue du Moulin", "brand": "Chargy", "opening_hours": "24/7", "car": "yes", "phone": "+352 80062020", "authentication:membership_card": "yes", "devices": 2, "ref:chargy": "4673;4674", "socket:type2:output": "22kW", "socket:type2": 2, "capacity": 2}, "geometry": {"type": "Point", "coordinates": [6.095451, 49.829951]}}, {"type": "Feature", "properties": {"operator": "Chargy", "amenity": "charging_station", "name": "Grosbous - Parking Prommenhaff", "brand": "Chargy", "opening_hours": "24/7", "car": "yes", "phone": "+352 80062020", "authentication:membership_card": "yes", "devices": 1, "ref:chargy": "647", "socket:type2:output": "22kW", "socket:type2": 2, "capacity": 2}, "geometry": {"type": "Point", "coordinates": [5.96503, 49.8282]}}, {"type": "Feature", "properties": {"operator": "Chargy", "amenity": "charging_station", "name": "Chargy Ok - Commune Diekirch - Gare", "brand": "Chargy", "opening_hours": "24/7", "car": "yes", "phone": "+352 80062020", "authentication:membership_card": "yes", "devices": 2, "ref:chargy": "4661;4660", "socket:type2:output": "22kW", "socket:type2": 2, "capacity": 2}, "geometry": {"type": "Point", "coordinates": [6.1546, 49.8648]}}, {"type": "Feature", "properties": {"operator": "Chargy", "amenity": "charging_station", "name": "Ingeldorf - Parking rue du Berger", "brand": "Chargy", "opening_hours": "24/7", "car": "yes", "phone": "+352 80062020", "authentication:membership_card": "yes", "devices": 1, "ref:chargy": "3959", "socket:type2:output": "22kW", "socket:type2": 2, "capacity": 2}, "geometry": {"type": "Point", "coordinates": [6.13358, 49.851565]}}, {"type": "Feature", "properties": {"operator": "Chargy", "amenity": "charging_station", "name": "Chargy Ok - Garage Kremer", "brand": "Chargy", "opening_hours": "24/7", "car": "yes", "phone": "+352 80062020", "authentication:membership_card": "yes", "devices": 1, "ref:chargy": "1312", "socket:type2:output": "22kW", "socket:type2": 2, "capacity": 2}, "geometry": {"type": "Point", "coordinates": [6.10381, 49.75636]}}, {"type": "Feature", "properties": {"operator": "Chargy", "amenity": "charging_station", "name": "Chargy Ok - Parking souterrain CONSERVATOIRE", "brand": "Chargy", "opening_hours": "24/7", "car": "yes", "phone": "+352 80062020", "authentication:membership_card": "yes", "devices": 1, "ref:chargy": "791", "socket:type2:output": "22kW", "socket:type2": 3, "capacity": 3}, "geometry": {"type": "Point", "coordinates": [6.106474, 49.602135]}}, {"type": "Feature", "properties": {"operator": "Chargy", "amenity": "charging_station", "name": "Chargy Ok - Commune Ettelbruck - rue Abb\u00e9 Muller", "brand": "Chargy", "opening_hours": "24/7", "car": "yes", "phone": "+352 80062020", "authentication:membership_card": "yes", "devices": 2, "ref:chargy": "4666;4667", "socket:type2:output": "22kW", "socket:type2": 2, "capacity": 2}, "geometry": {"type": "Point", "coordinates": [6.1008, 49.8461]}}, {"type": "Feature", "properties": {"operator": "Chargy", "amenity": "charging_station", "name": "Wiltz - Parking av. de la Gare", "brand": "Chargy", "opening_hours": "24/7", "car": "yes", "phone": "+352 80062020", "authentication:membership_card": "yes", "devices": 1, "ref:chargy": "1442", "socket:type2:output": "22kW", "socket:type2": 2, "capacity": 2}, "geometry": {"type": "Point", "coordinates": [5.930302, 49.966878]}}, {"type": "Feature", "properties": {"operator": "Chargy", "amenity": "charging_station", "name": "Septfontaines - Parking Mairie", "brand": "Chargy", "opening_hours": "24/7", "car": "yes", "phone": "+352 80062020", "authentication:membership_card": "yes", "devices": 1, "ref:chargy": "727", "socket:type2:output": "22kW", "socket:type2": 2, "capacity": 2}, "geometry": {"type": "Point", "coordinates": [5.963929, 49.69973]}}, {"type": "Feature", "properties": {"operator": "Chargy", "amenity": "charging_station", "name": "Wiltz - Parking du Ch\u00e2teau", "brand": "Chargy", "opening_hours": "24/7", "car": "yes", "phone": "+352 80062020", "authentication:membership_card": "yes", "devices": 1, "ref:chargy": "1309", "socket:type2:output": "22kW", "socket:type2": 2, "capacity": 2}, "geometry": {"type": "Point", "coordinates": [5.93663, 49.967131]}}, {"type": "Feature", "properties": {"operator": "Chargy", "amenity": "charging_station", "name": "VdL - Parking Parc Merl", "brand": "Chargy", "opening_hours": "24/7", "car": "yes", "phone": "+352 80062020", "authentication:membership_card": "yes", "devices": 2, "ref:chargy": "354;439", "socket:type2:output": "22kW", "socket:type2": 4, "capacity": 4}, "geometry": {"type": "Point", "coordinates": [6.112418, 49.604191]}}, {"type": "Feature", "properties": {"operator": "Chargy", "amenity": "charging_station", "name": "Chargy Ok - Commune Ettelbruck - rue Bourschterbach", "brand": "Chargy", "opening_hours": "24/7", "car": "yes", "phone": "+352 80062020", "authentication:membership_card": "yes", "devices": 2, "ref:chargy": "4670;4671", "socket:type2:output": "22kW", "socket:type2": 2, "capacity": 2}, "geometry": {"type": "Point", "coordinates": [6.0891, 49.8576]}}, {"type": "Feature", "properties": {"operator": "Chargy", "amenity": "charging_station", "name": "Wiltz - Parking Place des Martyrs", "brand": "Chargy", "opening_hours": "24/7", "car": "yes", "phone": "+352 80062020", "authentication:membership_card": "yes", "devices": 1, "ref:chargy": "1094", "socket:type2:output": "22kW", "socket:type2": 2, "capacity": 2}, "geometry": {"type": "Point", "coordinates": [5.934933, 49.962713]}}, {"type": "Feature", "properties": {"operator": "Chargy", "amenity": "charging_station", "name": "Canach - Parking Mairie", "brand": "Chargy", "opening_hours": "24/7", "car": "yes", "phone": "+352 80062020", "authentication:membership_card": "yes", "devices": 1, "ref:chargy": "3967", "socket:type2:output": "22kW", "socket:type2": 2, "capacity": 2}, "geometry": {"type": "Point", "coordinates": [6.324204, 49.61038]}}, {"type": "Feature", "properties": {"operator": "Chargy", "amenity": "charging_station", "name": "Mertert - Parking Eglise", "brand": "Chargy", "opening_hours": "24/7", "car": "yes", "phone": "+352 80062020", "authentication:membership_card": "yes", "devices": 1, "ref:chargy": "3973", "socket:type2:output": "22kW", "socket:type2": 2, "capacity": 2}, "geometry": {"type": "Point", "coordinates": [6.480414, 49.701318]}}, {"type": "Feature", "properties": {"operator": "Chargy", "amenity": "charging_station", "name": "Chargy Ok - Opkorn", "brand": "Chargy", "opening_hours": "24/7", "car": "yes", "phone": "+352 80062020", "authentication:membership_card": "yes", "devices": 8, "ref:chargy": "2209;2389;2390;2544;2786;2678;2467;2726", "socket:type2:output": "22kW", "socket:type2": 16, "capacity": 16}, "geometry": {"type": "Point", "coordinates": [5.8924, 49.5218]}}, {"type": "Feature", "properties": {"operator": "Chargy", "amenity": "charging_station", "name": "VdL - Bonnevoie - Place Virchow", "brand": "Chargy", "opening_hours": "24/7", "car": "yes", "phone": "+352 80062020", "authentication:membership_card": "yes", "devices": 1, "ref:chargy": "344", "socket:type2:output": "22kW", "socket:type2": 2, "capacity": 2}, "geometry": {"type": "Point", "coordinates": [6.139479, 49.60212]}}, {"type": "Feature", "properties": {"operator": "Chargy", "amenity": "charging_station", "name": "Goeblange - Parking rue Principale", "brand": "Chargy", "opening_hours": "24/7", "car": "yes", "phone": "+352 80062020", "authentication:membership_card": "yes", "devices": 1, "ref:chargy": "1041", "socket:type2:output": "22kW", "socket:type2": 2, "capacity": 2}, "geometry": {"type": "Point", "coordinates": [5.965678, 49.66948]}}, {"type": "Feature", "properties": {"operator": "Chargy", "amenity": "charging_station", "name": "Kayl - Parking Mairie", "brand": "Chargy", "opening_hours": "24/7", "car": "yes", "phone": "+352 80062020", "authentication:membership_card": "yes", "devices": 1, "ref:chargy": "1464", "socket:type2:output": "22kW", "socket:type2": 2, "capacity": 2}, "geometry": {"type": "Point", "coordinates": [6.037659, 49.487637]}}, {"type": "Feature", "properties": {"operator": "Chargy", "amenity": "charging_station", "name": "T\u00e9tange - Parking Cimeti\u00e8re", "brand": "Chargy", "opening_hours": "24/7", "car": "yes", "phone": "+352 80062020", "authentication:membership_card": "yes", "devices": 1, "ref:chargy": "1375", "socket:type2:output": "22kW", "socket:type2": 2, "capacity": 2}, "geometry": {"type": "Point", "coordinates": [6.043229, 49.479352]}}, {"type": "Feature", "properties": {"operator": "Chargy", "amenity": "charging_station", "name": "T\u00e9tange - Parking rue des L\u00e9gionnaires", "brand": "Chargy", "opening_hours": "24/7", "car": "yes", "phone": "+352 80062020", "authentication:membership_card": "yes", "devices": 1, "ref:chargy": "165", "socket:type2:output": "22kW", "socket:type2": 2, "capacity": 2}, "geometry": {"type": "Point", "coordinates": [6.038526, 49.473682]}}, {"type": "Feature", "properties": {"operator": "Chargy", "amenity": "charging_station", "name": "Bettembourg - Parking Centre Sportif / Piscine", "brand": "Chargy", "opening_hours": "24/7", "car": "yes", "phone": "+352 80062020", "authentication:membership_card": "yes", "devices": 1, "ref:chargy": "2742", "socket:type2:output": "22kW", "socket:type2": 2, "capacity": 2}, "geometry": {"type": "Point", "coordinates": [6.099228, 49.516157]}}, {"type": "Feature", "properties": {"operator": "Chargy", "amenity": "charging_station", "name": "Wasserbillig - Parking Mairie", "brand": "Chargy", "opening_hours": "24/7", "car": "yes", "phone": "+352 80062020", "authentication:membership_card": "yes", "devices": 1, "ref:chargy": "3966", "socket:type2:output": "22kW", "socket:type2": 2, "capacity": 2}, "geometry": {"type": "Point", "coordinates": [6.498388, 49.713412]}}, {"type": "Feature", "properties": {"operator": "Chargy", "amenity": "charging_station", "name": "Wasserbillig - Parking Centre Culturel", "brand": "Chargy", "opening_hours": "24/7", "car": "yes", "phone": "+352 80062020", "authentication:membership_card": "yes", "devices": 1, "ref:chargy": "3965", "socket:type2:output": "22kW", "socket:type2": 2, "capacity": 2}, "geometry": {"type": "Point", "coordinates": [6.496249, 49.713031]}}, {"type": "Feature", "properties": {"operator": "Chargy", "amenity": "charging_station", "name": "Boevange/Attert - Parking Ecole", "brand": "Chargy", "opening_hours": "24/7", "car": "yes", "phone": "+352 80062020", "authentication:membership_card": "yes", "devices": 1, "ref:chargy": "3962", "socket:type2:output": "22kW", "socket:type2": 2, "capacity": 2}, "geometry": {"type": "Point", "coordinates": [6.018966, 49.771815]}}, {"type": "Feature", "properties": {"operator": "Chargy", "amenity": "charging_station", "name": "Mertzig - Parking rue de l'Ecole", "brand": "Chargy", "opening_hours": "24/7", "car": "yes", "phone": "+352 80062020", "authentication:membership_card": "yes", "devices": 1, "ref:chargy": "3958", "socket:type2:output": "22kW", "socket:type2": 2, "capacity": 2}, "geometry": {"type": "Point", "coordinates": [6.003333, 49.831474]}}, {"type": "Feature", "properties": {"operator": "Chargy", "amenity": "charging_station", "name": "Ell - Parking Centre Culturel", "brand": "Chargy", "opening_hours": "24/7", "car": "yes", "phone": "+352 80062020", "authentication:membership_card": "yes", "devices": 1, "ref:chargy": "3077", "socket:type2:output": "22kW", "socket:type2": 2, "capacity": 2}, "geometry": {"type": "Point", "coordinates": [5.852619, 49.76334]}}, {"type": "Feature", "properties": {"operator": "Chargy", "amenity": "charging_station", "name": "Vichten - Parking Cimeti\u00e8re", "brand": "Chargy", "opening_hours": "24/7", "car": "yes", "phone": "+352 80062020", "authentication:membership_card": "yes", "devices": 1, "ref:chargy": "1852", "socket:type2:output": "22kW", "socket:type2": 2, "capacity": 2}, "geometry": {"type": "Point", "coordinates": [6.001545, 49.802609]}}, {"type": "Feature", "properties": {"operator": "Chargy", "amenity": "charging_station", "name": "Reisdorf - Parking Ecole", "brand": "Chargy", "opening_hours": "24/7", "car": "yes", "phone": "+352 80062020", "authentication:membership_card": "yes", "devices": 1, "ref:chargy": "1789", "socket:type2:output": "22kW", "socket:type2": 2, "capacity": 2}, "geometry": {"type": "Point", "coordinates": [6.264837, 49.867074]}}, {"type": "Feature", "properties": {"operator": "Chargy", "amenity": "charging_station", "name": "Dudelange - Parking Lyc\u00e9e Nic. Biever", "brand": "Chargy", "opening_hours": "24/7", "car": "yes", "phone": "+352 80062020", "authentication:membership_card": "yes", "devices": 1, "ref:chargy": "106", "socket:type2:output": "22kW", "socket:type2": 2, "capacity": 2}, "geometry": {"type": "Point", "coordinates": [6.087764, 49.48415]}}, {"type": "Feature", "properties": {"operator": "Chargy", "amenity": "charging_station", "name": "Niederfeulen - Parking Mairie", "brand": "Chargy", "opening_hours": "24/7", "car": "yes", "phone": "+352 80062020", "authentication:membership_card": "yes", "devices": 1, "ref:chargy": "1323", "socket:type2:output": "22kW", "socket:type2": 2, "capacity": 2}, "geometry": {"type": "Point", "coordinates": [6.046179, 49.853494]}}, {"type": "Feature", "properties": {"operator": "Chargy", "amenity": "charging_station", "name": "Dudelange - Parking Skatepark", "brand": "Chargy", "opening_hours": "24/7", "car": "yes", "phone": "+352 80062020", "authentication:membership_card": "yes", "devices": 1, "ref:chargy": "154", "socket:type2:output": "22kW", "socket:type2": 2, "capacity": 2}, "geometry": {"type": "Point", "coordinates": [6.079605, 49.470742]}}, {"type": "Feature", "properties": {"operator": "Chargy", "amenity": "charging_station", "name": "Ettelbruck - Parking Deichwiesen", "brand": "Chargy", "opening_hours": "24/7", "car": "yes", "phone": "+352 80062020", "authentication:membership_card": "yes", "devices": 1, "ref:chargy": "1434", "socket:type2:output": "22kW", "socket:type2": 2, "capacity": 2}, "geometry": {"type": "Point", "coordinates": [6.096698, 49.843921]}}, {"type": "Feature", "properties": {"operator": "Chargy", "amenity": "charging_station", "name": "Dudelange - Parking Cimeti\u00e8re", "brand": "Chargy", "opening_hours": "24/7", "car": "yes", "phone": "+352 80062020", "authentication:membership_card": "yes", "devices": 1, "ref:chargy": "1810", "socket:type2:output": "22kW", "socket:type2": 2, "capacity": 2}, "geometry": {"type": "Point", "coordinates": [6.082699, 49.484291]}}, {"type": "Feature", "properties": {"operator": "Chargy", "amenity": "charging_station", "name": "Ettelbruck - Parking Place H\u00f4tel de Ville", "brand": "Chargy", "opening_hours": "24/7", "car": "yes", "phone": "+352 80062020", "authentication:membership_card": "yes", "devices": 1, "ref:chargy": "1126", "socket:type2:output": "22kW", "socket:type2": 2, "capacity": 2}, "geometry": {"type": "Point", "coordinates": [6.099605, 49.846353]}}, {"type": "Feature", "properties": {"operator": "Chargy", "amenity": "charging_station", "name": "Dudelange - Parking Parc Leh", "brand": "Chargy", "opening_hours": "24/7", "car": "yes", "phone": "+352 80062020", "authentication:membership_card": "yes", "devices": 1, "ref:chargy": "2829", "socket:type2:output": "22kW", "socket:type2": 2, "capacity": 2}, "geometry": {"type": "Point", "coordinates": [6.099029, 49.48669]}}, {"type": "Feature", "properties": {"operator": "Chargy", "amenity": "charging_station", "name": "Ettelbruck - Parking Place de la Lib\u00e9ration", "brand": "Chargy", "opening_hours": "24/7", "car": "yes", "phone": "+352 80062020", "authentication:membership_card": "yes", "devices": 1, "ref:chargy": "1441", "socket:type2:output": "22kW", "socket:type2": 2, "capacity": 2}, "geometry": {"type": "Point", "coordinates": [6.098874, 49.847095]}}, {"type": "Feature", "properties": {"operator": "Chargy", "amenity": "charging_station", "name": "Dudelange - Parking CSRH", "brand": "Chargy", "opening_hours": "24/7", "car": "yes", "phone": "+352 80062020", "authentication:membership_card": "yes", "devices": 1, "ref:chargy": "681", "socket:type2:output": "22kW", "socket:type2": 2, "capacity": 2}, "geometry": {"type": "Point", "coordinates": [6.088827, 49.484519]}}, {"type": "Feature", "properties": {"operator": "Chargy", "amenity": "charging_station", "name": "Ettelbruck - Parking Salentiny LTETT", "brand": "Chargy", "opening_hours": "24/7", "car": "yes", "phone": "+352 80062020", "authentication:membership_card": "yes", "devices": 1, "ref:chargy": "1457", "socket:type2:output": "22kW", "socket:type2": 2, "capacity": 2}, "geometry": {"type": "Point", "coordinates": [6.098215, 49.850823]}}, {"type": "Feature", "properties": {"operator": "Chargy", "amenity": "charging_station", "name": "Ettelbruck - Centre Hospitalier du Nord", "brand": "Chargy", "opening_hours": "24/7", "car": "yes", "phone": "+352 80062020", "authentication:membership_card": "yes", "devices": 1, "ref:chargy": "1151", "socket:type2:output": "22kW", "socket:type2": 2, "capacity": 2}, "geometry": {"type": "Point", "coordinates": [6.095315, 49.85313]}}, {"type": "Feature", "properties": {"operator": "Chargy", "amenity": "charging_station", "name": "Dudelange - Parking Place Fohrmann", "brand": "Chargy", "opening_hours": "24/7", "car": "yes", "phone": "+352 80062020", "authentication:membership_card": "yes", "devices": 1, "ref:chargy": "124", "socket:type2:output": "22kW", "socket:type2": 2, "capacity": 2}, "geometry": {"type": "Point", "coordinates": [6.08407, 49.477283]}}, {"type": "Feature", "properties": {"operator": "Chargy", "amenity": "charging_station", "name": "Mersch - Ecole Krounebierg", "brand": "Chargy", "opening_hours": "24/7", "car": "yes", "phone": "+352 80062020", "authentication:membership_card": "yes", "devices": 1, "ref:chargy": "1117", "socket:type2:output": "22kW", "socket:type2": 2, "capacity": 2}, "geometry": {"type": "Point", "coordinates": [6.09301, 49.74281]}}, {"type": "Feature", "properties": {"operator": "Chargy", "amenity": "charging_station", "name": "Mersch - Ecole Albert Elsen", "brand": "Chargy", "opening_hours": "24/7", "car": "yes", "phone": "+352 80062020", "authentication:membership_card": "yes", "devices": 1, "ref:chargy": "1227", "socket:type2:output": "22kW", "socket:type2": 2, "capacity": 2}, "geometry": {"type": "Point", "coordinates": [6.10154, 49.74683]}}, {"type": "Feature", "properties": {"operator": "Chargy", "amenity": "charging_station", "name": "Mersch - P&R Valfond", "brand": "Chargy", "opening_hours": "24/7", "car": "yes", "phone": "+352 80062020", "authentication:membership_card": "yes", "devices": 1, "ref:chargy": "844", "socket:type2:output": "22kW", "socket:type2": 2, "capacity": 2}, "geometry": {"type": "Point", "coordinates": [6.11017, 49.75505]}}, {"type": "Feature", "properties": {"operator": "Chargy", "amenity": "charging_station", "name": "Mersch - P&R rue Lohr", "brand": "Chargy", "opening_hours": "24/7", "car": "yes", "phone": "+352 80062020", "authentication:membership_card": "yes", "devices": 1, "ref:chargy": "1576", "socket:type2:output": "22kW", "socket:type2": 2, "capacity": 2}, "geometry": {"type": "Point", "coordinates": [6.11126, 49.74873]}}, {"type": "Feature", "properties": {"operator": "Chargy", "amenity": "charging_station", "name": "Colmar-Berg - Parking Centre Culturel", "brand": "Chargy", "opening_hours": "24/7", "car": "yes", "phone": "+352 80062020", "authentication:membership_card": "yes", "devices": 1, "ref:chargy": "1847", "socket:type2:output": "22kW", "socket:type2": 2, "capacity": 2}, "geometry": {"type": "Point", "coordinates": [6.095655, 49.811471]}}, {"type": "Feature", "properties": {"operator": "Chargy", "amenity": "charging_station", "name": "Colmar-Berg - Parking Cit\u00e9 Morisacker", "brand": "Chargy", "opening_hours": "24/7", "car": "yes", "phone": "+352 80062020", "authentication:membership_card": "yes", "devices": 1, "ref:chargy": "1853", "socket:type2:output": "22kW", "socket:type2": 2, "capacity": 2}, "geometry": {"type": "Point", "coordinates": [6.099182, 49.814426]}}, {"type": "Feature", "properties": {"operator": "Chargy", "amenity": "charging_station", "name": "VdL - Limpertsberg - Cour Hall Victor Hugo", "brand": "Chargy", "opening_hours": "24/7", "car": "yes", "phone": "+352 80062020", "authentication:membership_card": "yes", "devices": 2, "ref:chargy": "1354;993", "socket:type2:output": "22kW", "socket:type2": 4, "capacity": 4}, "geometry": {"type": "Point", "coordinates": [6.123113, 49.620313]}}, {"type": "Feature", "properties": {"operator": "Chargy", "amenity": "charging_station", "name": "VdL - Gasperich - Bei der Auer", "brand": "Chargy", "opening_hours": "24/7", "car": "yes", "phone": "+352 80062020", "authentication:membership_card": "yes", "devices": 1, "ref:chargy": "1152", "socket:type2:output": "22kW", "socket:type2": 2, "capacity": 2}, "geometry": {"type": "Point", "coordinates": [6.125077, 49.591392]}}, {"type": "Feature", "properties": {"operator": "Chargy", "amenity": "charging_station", "name": "Flaxweiler - Parking Mairie", "brand": "Chargy", "opening_hours": "24/7", "car": "yes", "phone": "+352 80062020", "authentication:membership_card": "yes", "devices": 1, "ref:chargy": "1055", "socket:type2:output": "22kW", "socket:type2": 2, "capacity": 2}, "geometry": {"type": "Point", "coordinates": [6.342824, 49.666493]}}, {"type": "Feature", "properties": {"operator": "Chargy", "amenity": "charging_station", "name": "Diekirch - Parking Gare CFL", "brand": "Chargy", "opening_hours": "24/7", "car": "yes", "phone": "+352 80062020", "authentication:membership_card": "yes", "devices": 3, "ref:chargy": "4255;2369;2677", "socket:type2:output": "22kW", "socket:type2": 6, "capacity": 6}, "geometry": {"type": "Point", "coordinates": [6.153267, 49.864439]}}, {"type": "Feature", "properties": {"operator": "Chargy", "amenity": "charging_station", "name": "Chargy Ok - Parking Bissen", "brand": "Chargy", "opening_hours": "24/7", "car": "yes", "phone": "+352 80062020", "authentication:membership_card": "yes", "devices": 1, "ref:chargy": "976", "socket:type2:output": "22kW", "socket:type2": 2, "capacity": 2}, "geometry": {"type": "Point", "coordinates": [6.063052, 49.788148]}}, {"type": "Feature", "properties": {"operator": "Chargy", "amenity": "charging_station", "name": "Chargy Ok - Parking souterrain ROCADE", "brand": "Chargy", "opening_hours": "24/7", "car": "yes", "phone": "+352 80062020", "authentication:membership_card": "yes", "devices": 1, "ref:chargy": "1469", "socket:type2:output": "22kW", "socket:type2": 2, "capacity": 2}, "geometry": {"type": "Point", "coordinates": [6.136582, 49.60421]}}, {"type": "Feature", "properties": {"operator": "Chargy", "amenity": "charging_station", "name": "Baschleiden - Parking Abri-Bus", "brand": "Chargy", "opening_hours": "24/7", "car": "yes", "phone": "+352 80062020", "authentication:membership_card": "yes", "devices": 1, "ref:chargy": "2603", "socket:type2:output": "22kW", "socket:type2": 2, "capacity": 2}, "geometry": {"type": "Point", "coordinates": [5.818233, 49.89843]}}, {"type": "Feature", "properties": {"operator": "Chargy", "amenity": "charging_station", "name": "Bourscheid - Parking Eglise", "brand": "Chargy", "opening_hours": "24/7", "car": "yes", "phone": "+352 80062020", "authentication:membership_card": "yes", "devices": 1, "ref:chargy": "2685", "socket:type2:output": "22kW", "socket:type2": 2, "capacity": 2}, "geometry": {"type": "Point", "coordinates": [6.064443, 49.909854]}}, {"type": "Feature", "properties": {"operator": "Chargy", "amenity": "charging_station", "name": "Diekirch - Parking Piscine Municipale", "brand": "Chargy", "opening_hours": "24/7", "car": "yes", "phone": "+352 80062020", "authentication:membership_card": "yes", "devices": 1, "ref:chargy": "1220", "socket:type2:output": "22kW", "socket:type2": 2, "capacity": 2}, "geometry": {"type": "Point", "coordinates": [6.164571, 49.864216]}}, {"type": "Feature", "properties": {"operator": "Chargy", "amenity": "charging_station", "name": "Diekirch - Parking Place Goethals", "brand": "Chargy", "opening_hours": "24/7", "car": "yes", "phone": "+352 80062020", "authentication:membership_card": "yes", "devices": 1, "ref:chargy": "1001", "socket:type2:output": "22kW", "socket:type2": 2, "capacity": 2}, "geometry": {"type": "Point", "coordinates": [6.159149, 49.868176]}}, {"type": "Feature", "properties": {"operator": "Chargy", "amenity": "charging_station", "name": "Diekirch - Parking Al See\u00ebrei", "brand": "Chargy", "opening_hours": "24/7", "car": "yes", "phone": "+352 80062020", "authentication:membership_card": "yes", "devices": 2, "ref:chargy": "893;941", "socket:type2:output": "22kW", "socket:type2": 4, "capacity": 4}, "geometry": {"type": "Point", "coordinates": [6.150861, 49.864159]}}, {"type": "Feature", "properties": {"operator": "Chargy", "amenity": "charging_station", "name": "Perl\u00e9 - Ancienne ecole", "brand": "Chargy", "opening_hours": "24/7", "car": "yes", "phone": "+352 80062020", "authentication:membership_card": "yes", "devices": 1, "ref:chargy": "4089", "socket:type2:output": "22kW", "socket:type2": 2, "capacity": 2}, "geometry": {"type": "Point", "coordinates": [5.764089, 49.809769]}}, {"type": "Feature", "properties": {"operator": "Chargy", "amenity": "charging_station", "name": "P\u00e9tange - Parking rue du Parc", "brand": "Chargy", "opening_hours": "24/7", "car": "yes", "phone": "+352 80062020", "authentication:membership_card": "yes", "devices": 1, "ref:chargy": "1864", "socket:type2:output": "22kW", "socket:type2": 2, "capacity": 2}, "geometry": {"type": "Point", "coordinates": [5.877675, 49.557178]}}, {"type": "Feature", "properties": {"operator": "Chargy", "amenity": "charging_station", "name": "Grevels - Centre Nei Brasilien", "brand": "Chargy", "opening_hours": "24/7", "car": "yes", "phone": "+352 80062020", "authentication:membership_card": "yes", "devices": 1, "ref:chargy": "3964", "socket:type2:output": "22kW", "socket:type2": 2, "capacity": 2}, "geometry": {"type": "Point", "coordinates": [5.908147, 49.848286]}}, {"type": "Feature", "properties": {"operator": "Chargy", "amenity": "charging_station", "name": "Chargy Ok - Parking souterrain SCHUMAN", "brand": "Chargy", "opening_hours": "24/7", "car": "yes", "phone": "+352 80062020", "authentication:membership_card": "yes", "devices": 1, "ref:chargy": "1250", "socket:type2:output": "22kW", "socket:type2": 2, "capacity": 2}, "geometry": {"type": "Point", "coordinates": [6.12516, 49.618269]}}, {"type": "Feature", "properties": {"operator": "Chargy", "amenity": "charging_station", "name": "Chargy Ok - Parking a\u00e9rien \u00e0 \u00e9tages BOUILLON", "brand": "Chargy", "opening_hours": "24/7", "car": "yes", "phone": "+352 80062020", "authentication:membership_card": "yes", "devices": 1, "ref:chargy": "1130", "socket:type2:output": "22kW", "socket:type2": 2, "capacity": 2}, "geometry": {"type": "Point", "coordinates": [6.106203, 49.599956]}}, {"type": "Feature", "properties": {"operator": "Chargy", "amenity": "charging_station", "name": "Diekirch - Parking Op der Meierchen", "brand": "Chargy", "opening_hours": "24/7", "car": "yes", "phone": "+352 80062020", "authentication:membership_card": "yes", "devices": 1, "ref:chargy": "1856", "socket:type2:output": "22kW", "socket:type2": 2, "capacity": 2}, "geometry": {"type": "Point", "coordinates": [6.158249, 49.870388]}}, {"type": "Feature", "properties": {"operator": "Chargy", "amenity": "charging_station", "name": "Helmsange - Parking Biergercenter", "brand": "Chargy", "opening_hours": "24/7", "car": "yes", "phone": "+352 80062020", "authentication:membership_card": "yes", "devices": 1, "ref:chargy": "559", "socket:type2:output": "22kW", "socket:type2": 2, "capacity": 2}, "geometry": {"type": "Point", "coordinates": [6.132133800000001, 49.6596146]}}, {"type": "Feature", "properties": {"operator": "Chargy", "amenity": "charging_station", "name": "Diekirch - Parking rue Promenade de la S\u00fbre", "brand": "Chargy", "opening_hours": "24/7", "car": "yes", "phone": "+352 80062020", "authentication:membership_card": "yes", "devices": 1, "ref:chargy": "1798", "socket:type2:output": "22kW", "socket:type2": 2, "capacity": 2}, "geometry": {"type": "Point", "coordinates": [6.160018, 49.864935]}}, {"type": "Feature", "properties": {"operator": "Chargy", "amenity": "charging_station", "name": "Helmsange - Parking Hall des Sports", "brand": "Chargy", "opening_hours": "24/7", "car": "yes", "phone": "+352 80062020", "authentication:membership_card": "yes", "devices": 1, "ref:chargy": "508", "socket:type2:output": "22kW", "socket:type2": 2, "capacity": 2}, "geometry": {"type": "Point", "coordinates": [6.131702, 49.661885]}}, {"type": "Feature", "properties": {"operator": "Chargy", "amenity": "charging_station", "name": "Helmsange - Parking Pidal", "brand": "Chargy", "opening_hours": "24/7", "car": "yes", "phone": "+352 80062020", "authentication:membership_card": "yes", "devices": 1, "ref:chargy": "520", "socket:type2:output": "22kW", "socket:type2": 2, "capacity": 2}, "geometry": {"type": "Point", "coordinates": [6.129968, 49.667334]}}, {"type": "Feature", "properties": {"operator": "Chargy", "amenity": "charging_station", "name": "Bereldange - Parking Haus am Becheler", "brand": "Chargy", "opening_hours": "24/7", "car": "yes", "phone": "+352 80062020", "authentication:membership_card": "yes", "devices": 1, "ref:chargy": "1804", "socket:type2:output": "22kW", "socket:type2": 2, "capacity": 2}, "geometry": {"type": "Point", "coordinates": [6.1258779, 49.654689]}}, {"type": "Feature", "properties": {"operator": "Chargy", "amenity": "charging_station", "name": "Chargy Ok - Camping Kohnenhof", "brand": "Chargy", "opening_hours": "24/7", "car": "yes", "phone": "+352 80062020", "authentication:membership_card": "yes", "devices": 1, "ref:chargy": "1888", "socket:type2:output": "22kW", "socket:type2": 2, "capacity": 2}, "geometry": {"type": "Point", "coordinates": [6.135684, 50.016655]}}, {"type": "Feature", "properties": {"operator": "Chargy", "amenity": "charging_station", "name": "Chargy Ok - HRS - H\u00f4pitaux Robert Schuman S.A. (Zitha Klinik)", "brand": "Chargy", "opening_hours": "24/7", "car": "yes", "phone": "+352 80062020", "authentication:membership_card": "yes", "devices": 1, "ref:chargy": "1879", "socket:type2:output": "22kW", "socket:type2": 2, "capacity": 2}, "geometry": {"type": "Point", "coordinates": [6.128385, 49.603353]}}, {"type": "Feature", "properties": {"operator": "Chargy", "amenity": "charging_station", "name": "Reckange-sur-Mess - Parking Centre", "brand": "Chargy", "opening_hours": "24/7", "car": "yes", "phone": "+352 80062020", "authentication:membership_card": "yes", "devices": 1, "ref:chargy": "379", "socket:type2:output": "22kW", "socket:type2": 2, "capacity": 2}, "geometry": {"type": "Point", "coordinates": [6.006838, 49.562533]}}, {"type": "Feature", "properties": {"operator": "Chargy", "amenity": "charging_station", "name": "Schuttrange - Parking Eglise", "brand": "Chargy", "opening_hours": "24/7", "car": "yes", "phone": "+352 80062020", "authentication:membership_card": "yes", "devices": 1, "ref:chargy": "1017", "socket:type2:output": "22kW", "socket:type2": 2, "capacity": 2}, "geometry": {"type": "Point", "coordinates": [6.268376, 49.623866]}}, {"type": "Feature", "properties": {"operator": "Chargy", "amenity": "charging_station", "name": "Lorentzweiler - Parking Complexe Scolaire", "brand": "Chargy", "opening_hours": "24/7", "car": "yes", "phone": "+352 80062020", "authentication:membership_card": "yes", "devices": 1, "ref:chargy": "1013", "socket:type2:output": "22kW", "socket:type2": 2, "capacity": 2}, "geometry": {"type": "Point", "coordinates": [6.145096, 49.702302]}}, {"type": "Feature", "properties": {"operator": "Chargy", "amenity": "charging_station", "name": "Lorentzweiler - Parking Mairie", "brand": "Chargy", "opening_hours": "24/7", "car": "yes", "phone": "+352 80062020", "authentication:membership_card": "yes", "devices": 1, "ref:chargy": "842", "socket:type2:output": "22kW", "socket:type2": 2, "capacity": 2}, "geometry": {"type": "Point", "coordinates": [6.141102, 49.699232]}}, {"type": "Feature", "properties": {"operator": "Chargy", "amenity": "charging_station", "name": "Mondercange - Parking Place Bleser", "brand": "Chargy", "opening_hours": "24/7", "car": "yes", "phone": "+352 80062020", "authentication:membership_card": "yes", "devices": 1, "ref:chargy": "661", "socket:type2:output": "22kW", "socket:type2": 2, "capacity": 2}, "geometry": {"type": "Point", "coordinates": [5.986272, 49.531967]}}, {"type": "Feature", "properties": {"operator": "Chargy", "amenity": "charging_station", "name": "VdL - Hollerich - Place St. Pierre et Paul", "brand": "Chargy", "opening_hours": "24/7", "car": "yes", "phone": "+352 80062020", "authentication:membership_card": "yes", "devices": 1, "ref:chargy": "116", "socket:type2:output": "22kW", "socket:type2": 2, "capacity": 2}, "geometry": {"type": "Point", "coordinates": [6.118142, 49.598361]}}, {"type": "Feature", "properties": {"operator": "Chargy", "amenity": "charging_station", "name": "Chargy Ok - Creos Strassen", "brand": "Chargy", "opening_hours": "24/7", "car": "yes", "phone": "+352 80062020", "authentication:membership_card": "yes", "devices": 1, "ref:chargy": "619", "socket:type2:output": "22kW", "socket:type2": 2, "capacity": 2}, "geometry": {"type": "Point", "coordinates": [6.096077, 49.621709]}}, {"type": "Feature", "properties": {"operator": "Chargy", "amenity": "charging_station", "name": "Schleif - Parking public", "brand": "Chargy", "opening_hours": "24/7", "car": "yes", "phone": "+352 80062020", "authentication:membership_card": "yes", "devices": 1, "ref:chargy": "2429", "socket:type2:output": "22kW", "socket:type2": 2, "capacity": 2}, "geometry": {"type": "Point", "coordinates": [5.856282, 49.990228]}}, {"type": "Feature", "properties": {"operator": "Chargy", "amenity": "charging_station", "name": "Weiswampach - Parking Mairie", "brand": "Chargy", "opening_hours": "24/7", "car": "yes", "phone": "+352 80062020", "authentication:membership_card": "yes", "devices": 1, "ref:chargy": "1098", "socket:type2:output": "22kW", "socket:type2": 2, "capacity": 2}, "geometry": {"type": "Point", "coordinates": [6.07657, 50.142254]}}, {"type": "Feature", "properties": {"operator": "Chargy", "amenity": "charging_station", "name": "Troisvierges - Parking Nicolas Adames", "brand": "Chargy", "opening_hours": "24/7", "car": "yes", "phone": "+352 80062020", "authentication:membership_card": "yes", "devices": 1, "ref:chargy": "1786", "socket:type2:output": "22kW", "socket:type2": 2, "capacity": 2}, "geometry": {"type": "Point", "coordinates": [6.001016, 50.120598]}}, {"type": "Feature", "properties": {"operator": "Chargy", "amenity": "charging_station", "name": "Differdange - Parking Gerlache", "brand": "Chargy", "opening_hours": "24/7", "car": "yes", "phone": "+352 80062020", "authentication:membership_card": "yes", "devices": 1, "ref:chargy": "968", "socket:type2:output": "22kW", "socket:type2": 2, "capacity": 2}, "geometry": {"type": "Point", "coordinates": [5.890631, 49.52355]}}, {"type": "Feature", "properties": {"operator": "Chargy", "amenity": "charging_station", "name": "Pontpierre - Parking Eglise", "brand": "Chargy", "opening_hours": "24/7", "car": "yes", "phone": "+352 80062020", "authentication:membership_card": "yes", "devices": 1, "ref:chargy": "1424", "socket:type2:output": "22kW", "socket:type2": 2, "capacity": 2}, "geometry": {"type": "Point", "coordinates": [6.029814, 49.533199]}}, {"type": "Feature", "properties": {"operator": "Chargy", "amenity": "charging_station", "name": "Bergem - Parking Cimeti\u00e8re", "brand": "Chargy", "opening_hours": "24/7", "car": "yes", "phone": "+352 80062020", "authentication:membership_card": "yes", "devices": 1, "ref:chargy": "990", "socket:type2:output": "22kW", "socket:type2": 2, "capacity": 2}, "geometry": {"type": "Point", "coordinates": [6.045683, 49.521903]}}, {"type": "Feature", "properties": {"operator": "Chargy", "amenity": "charging_station", "name": "Esch-sur-Alzette - Parking Ellergronn", "brand": "Chargy", "opening_hours": "24/7", "car": "yes", "phone": "+352 80062020", "authentication:membership_card": "yes", "devices": 1, "ref:chargy": "1423", "socket:type2:output": "22kW", "socket:type2": 2, "capacity": 2}, "geometry": {"type": "Point", "coordinates": [5.979766, 49.477334]}}, {"type": "Feature", "properties": {"operator": "Chargy", "amenity": "charging_station", "name": "Schifflange - Parking Cit\u00e9 Op Hudelen", "brand": "Chargy", "opening_hours": "24/7", "car": "yes", "phone": "+352 80062020", "authentication:membership_card": "yes", "devices": 1, "ref:chargy": "583", "socket:type2:output": "22kW", "socket:type2": 2, "capacity": 2}, "geometry": {"type": "Point", "coordinates": [6.022885, 49.507554]}}, {"type": "Feature", "properties": {"operator": "Chargy", "amenity": "charging_station", "name": "Schifflange - Parking Centre Sportif", "brand": "Chargy", "opening_hours": "24/7", "car": "yes", "phone": "+352 80062020", "authentication:membership_card": "yes", "devices": 1, "ref:chargy": "440", "socket:type2:output": "22kW", "socket:type2": 2, "capacity": 2}, "geometry": {"type": "Point", "coordinates": [6.011839, 49.503196]}}, {"type": "Feature", "properties": {"operator": "Chargy", "amenity": "charging_station", "name": "Schifflange - Parking Sports Complex", "brand": "Chargy", "opening_hours": "24/7", "car": "yes", "phone": "+352 80062020", "authentication:membership_card": "yes", "devices": 1, "ref:chargy": "598", "socket:type2:output": "22kW", "socket:type2": 2, "capacity": 2}, "geometry": {"type": "Point", "coordinates": [6.016637, 49.51074]}}, {"type": "Feature", "properties": {"operator": "Chargy", "amenity": "charging_station", "name": "Putscheid - Parking Mairie", "brand": "Chargy", "opening_hours": "24/7", "car": "yes", "phone": "+352 80062020", "authentication:membership_card": "yes", "devices": 1, "ref:chargy": "1435", "socket:type2:output": "22kW", "socket:type2": 2, "capacity": 2}, "geometry": {"type": "Point", "coordinates": [6.131509, 49.96394]}}, {"type": "Feature", "properties": {"operator": "Chargy", "amenity": "charging_station", "name": "Niederkorn - Parking Haneboesch", "brand": "Chargy", "opening_hours": "24/7", "car": "yes", "phone": "+352 80062020", "authentication:membership_card": "yes", "devices": 1, "ref:chargy": "1053", "socket:type2:output": "22kW", "socket:type2": 2, "capacity": 2}, "geometry": {"type": "Point", "coordinates": [5.900403, 49.545943]}}, {"type": "Feature", "properties": {"operator": "Chargy", "amenity": "charging_station", "name": "Schifflange - Parking Cit\u00e9 Emile Mayrisch", "brand": "Chargy", "opening_hours": "24/7", "car": "yes", "phone": "+352 80062020", "authentication:membership_card": "yes", "devices": 1, "ref:chargy": "81", "socket:type2:output": "22kW", "socket:type2": 2, "capacity": 2}, "geometry": {"type": "Point", "coordinates": [6.004709, 49.507306]}}, {"type": "Feature", "properties": {"operator": "Chargy", "amenity": "charging_station", "name": "Schieren - Parking Mairie", "brand": "Chargy", "opening_hours": "24/7", "car": "yes", "phone": "+352 80062020", "authentication:membership_card": "yes", "devices": 1, "ref:chargy": "3960", "socket:type2:output": "22kW", "socket:type2": 2, "capacity": 2}, "geometry": {"type": "Point", "coordinates": [6.095805, 49.82867]}}, {"type": "Feature", "properties": {"operator": "Chargy", "amenity": "charging_station", "name": "Waldbredimus - Parking Presbyt\u00e8re", "brand": "Chargy", "opening_hours": "24/7", "car": "yes", "phone": "+352 80062020", "authentication:membership_card": "yes", "devices": 1, "ref:chargy": "1093", "socket:type2:output": "22kW", "socket:type2": 2, "capacity": 2}, "geometry": {"type": "Point", "coordinates": [6.2902641, 49.5567139]}}, {"type": "Feature", "properties": {"operator": "Chargy", "amenity": "charging_station", "name": "Bissen - Parking Mairie", "brand": "Chargy", "opening_hours": "24/7", "car": "yes", "phone": "+352 80062020", "authentication:membership_card": "yes", "devices": 1, "ref:chargy": "618", "socket:type2:output": "22kW", "socket:type2": 2, "capacity": 2}, "geometry": {"type": "Point", "coordinates": [6.066765, 49.788081]}}, {"type": "Feature", "properties": {"operator": "Chargy", "amenity": "charging_station", "name": "Bissen - Parking Am Brill", "brand": "Chargy", "opening_hours": "24/7", "car": "yes", "phone": "+352 80062020", "authentication:membership_card": "yes", "devices": 1, "ref:chargy": "1587", "socket:type2:output": "22kW", "socket:type2": 2, "capacity": 2}, "geometry": {"type": "Point", "coordinates": [6.067912, 49.791164]}}, {"type": "Feature", "properties": {"operator": "Chargy", "amenity": "charging_station", "name": "Bettembourg - Parking Place de l'Eglise", "brand": "Chargy", "opening_hours": "24/7", "car": "yes", "phone": "+352 80062020", "authentication:membership_card": "yes", "devices": 1, "ref:chargy": "2589", "socket:type2:output": "22kW", "socket:type2": 2, "capacity": 2}, "geometry": {"type": "Point", "coordinates": [6.097365, 49.518713]}}, {"type": "Feature", "properties": {"operator": "Chargy", "amenity": "charging_station", "name": "Beaufort - Parking Kiosque", "brand": "Chargy", "opening_hours": "24/7", "car": "yes", "phone": "+352 80062020", "authentication:membership_card": "yes", "devices": 1, "ref:chargy": "1797", "socket:type2:output": "22kW", "socket:type2": 2, "capacity": 2}, "geometry": {"type": "Point", "coordinates": [6.290955, 49.837264]}}, {"type": "Feature", "properties": {"operator": "Chargy", "amenity": "charging_station", "name": "Bettembourg - Parking route de Luxembourg", "brand": "Chargy", "opening_hours": "24/7", "car": "yes", "phone": "+352 80062020", "authentication:membership_card": "yes", "devices": 1, "ref:chargy": "2233", "socket:type2:output": "22kW", "socket:type2": 2, "capacity": 2}, "geometry": {"type": "Point", "coordinates": [6.100005, 49.524588]}}, {"type": "Feature", "properties": {"operator": "Chargy", "amenity": "charging_station", "name": "Rosport - Parking Mairie", "brand": "Chargy", "opening_hours": "24/7", "car": "yes", "phone": "+352 80062020", "authentication:membership_card": "yes", "devices": 1, "ref:chargy": "2637", "socket:type2:output": "22kW", "socket:type2": 2, "capacity": 2}, "geometry": {"type": "Point", "coordinates": [6.498691, 49.80404]}}, {"type": "Feature", "properties": {"operator": "Chargy", "amenity": "charging_station", "name": "VdL - Kirchberg - Uni L\u00ebtzebuerg", "brand": "Chargy", "opening_hours": "24/7", "car": "yes", "phone": "+352 80062020", "authentication:membership_card": "yes", "devices": 2, "ref:chargy": "1226;1134", "socket:type2:output": "22kW", "socket:type2": 4, "capacity": 4}, "geometry": {"type": "Point", "coordinates": [6.160564, 49.626612]}}, {"type": "Feature", "properties": {"operator": "Chargy", "amenity": "charging_station", "name": "Machtum - Parking Schliikebau", "brand": "Chargy", "opening_hours": "24/7", "car": "yes", "phone": "+352 80062020", "authentication:membership_card": "yes", "devices": 1, "ref:chargy": "4122", "socket:type2:output": "22kW", "socket:type2": 2, "capacity": 2}, "geometry": {"type": "Point", "coordinates": [6.436084, 49.659444]}}, {"type": "Feature", "properties": {"operator": "Chargy", "amenity": "charging_station", "name": "Weiler-la-Tour - Parking Mairie", "brand": "Chargy", "opening_hours": "24/7", "car": "yes", "phone": "+352 80062020", "authentication:membership_card": "yes", "devices": 1, "ref:chargy": "1289", "socket:type2:output": "22kW", "socket:type2": 2, "capacity": 2}, "geometry": {"type": "Point", "coordinates": [6.19757, 49.541197]}}, {"type": "Feature", "properties": {"operator": "Chargy", "amenity": "charging_station", "name": "Wormeldange - Parking Kundel", "brand": "Chargy", "opening_hours": "24/7", "car": "yes", "phone": "+352 80062020", "authentication:membership_card": "yes", "devices": 1, "ref:chargy": "4295", "socket:type2:output": "22kW", "socket:type2": 2, "capacity": 2}, "geometry": {"type": "Point", "coordinates": [6.396034, 49.615584]}}, {"type": "Feature", "properties": {"operator": "Chargy", "amenity": "charging_station", "name": "Niederkorn - Parking CHEM", "brand": "Chargy", "opening_hours": "24/7", "car": "yes", "phone": "+352 80062020", "authentication:membership_card": "yes", "devices": 1, "ref:chargy": "217", "socket:type2:output": "22kW", "socket:type2": 2, "capacity": 2}, "geometry": {"type": "Point", "coordinates": [5.888019, 49.533406]}}, {"type": "Feature", "properties": {"operator": "Chargy", "amenity": "charging_station", "name": "Clemency - Parking Pr\u00e9scolaire", "brand": "Chargy", "opening_hours": "24/7", "car": "yes", "phone": "+352 80062020", "authentication:membership_card": "yes", "devices": 1, "ref:chargy": "310", "socket:type2:output": "22kW", "socket:type2": 2, "capacity": 2}, "geometry": {"type": "Point", "coordinates": [5.871513, 49.598333]}}, {"type": "Feature", "properties": {"operator": "Chargy", "amenity": "charging_station", "name": "Esch-sur-Alzette - Parking Place de la Paix", "brand": "Chargy", "opening_hours": "24/7", "car": "yes", "phone": "+352 80062020", "authentication:membership_card": "yes", "devices": 1, "ref:chargy": "1018", "socket:type2:output": "22kW", "socket:type2": 2, "capacity": 2}, "geometry": {"type": "Point", "coordinates": [5.984021, 49.504629]}}, {"type": "Feature", "properties": {"operator": "Chargy", "amenity": "charging_station", "name": "Frisange - Parking Maison Communale", "brand": "Chargy", "opening_hours": "24/7", "car": "yes", "phone": "+352 80062020", "authentication:membership_card": "yes", "devices": 1, "ref:chargy": "429", "socket:type2:output": "22kW", "socket:type2": 2, "capacity": 2}, "geometry": {"type": "Point", "coordinates": [6.190136, 49.515999]}}, {"type": "Feature", "properties": {"operator": "Chargy", "amenity": "charging_station", "name": "Angelsberg - Parking Ecole", "brand": "Chargy", "opening_hours": "24/7", "car": "yes", "phone": "+352 80062020", "authentication:membership_card": "yes", "devices": 1, "ref:chargy": "4117", "socket:type2:output": "22kW", "socket:type2": 2, "capacity": 2}, "geometry": {"type": "Point", "coordinates": [6.163497, 49.763822]}}, {"type": "Feature", "properties": {"operator": "Chargy", "amenity": "charging_station", "name": "Esch-sur-Alzette - Parking Place de la Fronti\u00e8re", "brand": "Chargy", "opening_hours": "24/7", "car": "yes", "phone": "+352 80062020", "authentication:membership_card": "yes", "devices": 1, "ref:chargy": "1219", "socket:type2:output": "22kW", "socket:type2": 2, "capacity": 2}, "geometry": {"type": "Point", "coordinates": [5.978325, 49.489155]}}, {"type": "Feature", "properties": {"operator": "Chargy", "amenity": "charging_station", "name": "Olm - Parking rue de Capellen", "brand": "Chargy", "opening_hours": "24/7", "car": "yes", "phone": "+352 80062020", "authentication:membership_card": "yes", "devices": 1, "ref:chargy": "49", "socket:type2:output": "22kW", "socket:type2": 2, "capacity": 2}, "geometry": {"type": "Point", "coordinates": [5.998253, 49.655279]}}, {"type": "Feature", "properties": {"operator": "Chargy", "amenity": "charging_station", "name": "Esch-sur-Alzette - Parking Hall des Sports", "brand": "Chargy", "opening_hours": "24/7", "car": "yes", "phone": "+352 80062020", "authentication:membership_card": "yes", "devices": 1, "ref:chargy": "1905", "socket:type2:output": "22kW", "socket:type2": 2, "capacity": 2}, "geometry": {"type": "Point", "coordinates": [5.982833, 49.510321]}}, {"type": "Feature", "properties": {"operator": "Chargy", "amenity": "charging_station", "name": "Bridel - Parking BIL", "brand": "Chargy", "opening_hours": "24/7", "car": "yes", "phone": "+352 80062020", "authentication:membership_card": "yes", "devices": 1, "ref:chargy": "4116", "socket:type2:output": "22kW", "socket:type2": 2, "capacity": 2}, "geometry": {"type": "Point", "coordinates": [6.082724, 49.656642]}}, {"type": "Feature", "properties": {"operator": "Chargy", "amenity": "charging_station", "name": "Kehlen - Parking Mairie", "brand": "Chargy", "opening_hours": "24/7", "car": "yes", "phone": "+352 80062020", "authentication:membership_card": "yes", "devices": 1, "ref:chargy": "145", "socket:type2:output": "22kW", "socket:type2": 2, "capacity": 2}, "geometry": {"type": "Point", "coordinates": [6.034402, 49.667674]}}, {"type": "Feature", "properties": {"operator": "Chargy", "amenity": "charging_station", "name": "Chargy Ok - Hoffmann Fr\u00e8res S.\u00e0.r.l. & Cie secs", "brand": "Chargy", "opening_hours": "24/7", "car": "yes", "phone": "+352 80062020", "authentication:membership_card": "yes", "devices": 1, "ref:chargy": "1090", "socket:type2:output": "22kW", "socket:type2": 2, "capacity": 2}, "geometry": {"type": "Point", "coordinates": [6.10544, 49.7496688]}}, {"type": "Feature", "properties": {"operator": "Chargy", "amenity": "charging_station", "name": "Altwies - Parking Kaz", "brand": "Chargy", "opening_hours": "24/7", "car": "yes", "phone": "+352 80062020", "authentication:membership_card": "yes", "devices": 1, "ref:chargy": "383", "socket:type2:output": "22kW", "socket:type2": 2, "capacity": 2}, "geometry": {"type": "Point", "coordinates": [6.25782, 49.508595]}}, {"type": "Feature", "properties": {"operator": "Chargy", "amenity": "charging_station", "name": "Ellange - Parking Cimeti\u00e8re", "brand": "Chargy", "opening_hours": "24/7", "car": "yes", "phone": "+352 80062020", "authentication:membership_card": "yes", "devices": 1, "ref:chargy": "133", "socket:type2:output": "22kW", "socket:type2": 2, "capacity": 2}, "geometry": {"type": "Point", "coordinates": [6.298953, 49.519615]}}, {"type": "Feature", "properties": {"operator": "Chargy", "amenity": "charging_station", "name": "VdL - Kirchberg - Rue Dr. Nicolas Clasen", "brand": "Chargy", "opening_hours": "24/7", "car": "yes", "phone": "+352 80062020", "authentication:membership_card": "yes", "devices": 2, "ref:chargy": "388;328", "socket:type2:output": "22kW", "socket:type2": 4, "capacity": 4}, "geometry": {"type": "Point", "coordinates": [6.175081, 49.631816]}}, {"type": "Feature", "properties": {"operator": "Chargy", "amenity": "charging_station", "name": "VdL - Bonnevoie - Rue Sigismond", "brand": "Chargy", "opening_hours": "24/7", "car": "yes", "phone": "+352 80062020", "authentication:membership_card": "yes", "devices": 1, "ref:chargy": "607", "socket:type2:output": "22kW", "socket:type2": 2, "capacity": 2}, "geometry": {"type": "Point", "coordinates": [6.137444, 49.597722]}}, {"type": "Feature", "properties": {"operator": "Chargy", "amenity": "charging_station", "name": "VdL - Belair - Place de Li\u00e8ge", "brand": "Chargy", "opening_hours": "24/7", "car": "yes", "phone": "+352 80062020", "authentication:membership_card": "yes", "devices": 1, "ref:chargy": "1585", "socket:type2:output": "22kW", "socket:type2": 2, "capacity": 2}, "geometry": {"type": "Point", "coordinates": [6.108143, 49.60859]}}, {"type": "Feature", "properties": {"operator": "Chargy", "amenity": "charging_station", "name": "Rambrouch - Parking Centre Culturel", "brand": "Chargy", "opening_hours": "24/7", "car": "yes", "phone": "+352 80062020", "authentication:membership_card": "yes", "devices": 1, "ref:chargy": "1097", "socket:type2:output": "22kW", "socket:type2": 2, "capacity": 2}, "geometry": {"type": "Point", "coordinates": [5.849464, 49.830505]}}, {"type": "Feature", "properties": {"operator": "Chargy", "amenity": "charging_station", "name": "VdL - Bonnevoie - Place Saint Willibrord", "brand": "Chargy", "opening_hours": "24/7", "car": "yes", "phone": "+352 80062020", "authentication:membership_card": "yes", "devices": 1, "ref:chargy": "648", "socket:type2:output": "22kW", "socket:type2": 2, "capacity": 2}, "geometry": {"type": "Point", "coordinates": [6.140636, 49.593887]}}, {"type": "Feature", "properties": {"operator": "Chargy", "amenity": "charging_station", "name": "Diekirch - Parking Internat Jos Schmit", "brand": "Chargy", "opening_hours": "24/7", "car": "yes", "phone": "+352 80062020", "authentication:membership_card": "yes", "devices": 1, "ref:chargy": "2765", "socket:type2:output": "22kW", "socket:type2": 2, "capacity": 2}, "geometry": {"type": "Point", "coordinates": [6.160917, 49.870167]}}, {"type": "Feature", "properties": {"operator": "Chargy", "amenity": "charging_station", "name": "Bous - Parking Om Hiewel", "brand": "Chargy", "opening_hours": "24/7", "car": "yes", "phone": "+352 80062020", "authentication:membership_card": "yes", "devices": 1, "ref:chargy": "856", "socket:type2:output": "22kW", "socket:type2": 2, "capacity": 2}, "geometry": {"type": "Point", "coordinates": [6.334143, 49.555805]}}, {"type": "Feature", "properties": {"operator": "Chargy", "amenity": "charging_station", "name": "Greiveldange - Parking Ecole", "brand": "Chargy", "opening_hours": "24/7", "car": "yes", "phone": "+352 80062020", "authentication:membership_card": "yes", "devices": 1, "ref:chargy": "820", "socket:type2:output": "22kW", "socket:type2": 2, "capacity": 2}, "geometry": {"type": "Point", "coordinates": [6.3576944, 49.58646969999999]}}, {"type": "Feature", "properties": {"operator": "Chargy", "amenity": "charging_station", "name": "Born - Parking Centre Polyvalent", "brand": "Chargy", "opening_hours": "24/7", "car": "yes", "phone": "+352 80062020", "authentication:membership_card": "yes", "devices": 1, "ref:chargy": "2731", "socket:type2:output": "22kW", "socket:type2": 2, "capacity": 2}, "geometry": {"type": "Point", "coordinates": [6.502487, 49.75503]}}, {"type": "Feature", "properties": {"operator": "Chargy", "amenity": "charging_station", "name": "Berg (Colmar) - Parking rue Homecht", "brand": "Chargy", "opening_hours": "24/7", "car": "yes", "phone": "+352 80062020", "authentication:membership_card": "yes", "devices": 1, "ref:chargy": "1840", "socket:type2:output": "22kW", "socket:type2": 2, "capacity": 2}, "geometry": {"type": "Point", "coordinates": [6.086753, 49.813483]}}, {"type": "Feature", "properties": {"operator": "Chargy", "amenity": "charging_station", "name": "Osweiler - Parking Centre Culturel", "brand": "Chargy", "opening_hours": "24/7", "car": "yes", "phone": "+352 80062020", "authentication:membership_card": "yes", "devices": 1, "ref:chargy": "2595", "socket:type2:output": "22kW", "socket:type2": 2, "capacity": 2}, "geometry": {"type": "Point", "coordinates": [6.442414, 49.786293]}}, {"type": "Feature", "properties": {"operator": "Chargy", "amenity": "charging_station", "name": "Eischen - Parking Mairie \"Um Denn\"", "brand": "Chargy", "opening_hours": "24/7", "car": "yes", "phone": "+352 80062020", "authentication:membership_card": "yes", "devices": 1, "ref:chargy": "352", "socket:type2:output": "22kW", "socket:type2": 2, "capacity": 2}, "geometry": {"type": "Point", "coordinates": [5.877759, 49.683765]}}, {"type": "Feature", "properties": {"operator": "Chargy", "amenity": "charging_station", "name": "Diekirch - Parking Recette Communale", "brand": "Chargy", "opening_hours": "24/7", "car": "yes", "phone": "+352 80062020", "authentication:membership_card": "yes", "devices": 1, "ref:chargy": "1566", "socket:type2:output": "22kW", "socket:type2": 2, "capacity": 2}, "geometry": {"type": "Point", "coordinates": [6.158389, 49.865699]}}, {"type": "Feature", "properties": {"operator": "Chargy", "amenity": "charging_station", "name": "Capellen - Parking ZA Pafebruch", "brand": "Chargy", "opening_hours": "24/7", "car": "yes", "phone": "+352 80062020", "authentication:membership_card": "yes", "devices": 1, "ref:chargy": "1054", "socket:type2:output": "22kW", "socket:type2": 2, "capacity": 2}, "geometry": {"type": "Point", "coordinates": [6.009403, 49.640884]}}, {"type": "Feature", "properties": {"operator": "Chargy", "amenity": "charging_station", "name": "Holzem - Parking Place de la R\u00e9sistance", "brand": "Chargy", "opening_hours": "24/7", "car": "yes", "phone": "+352 80062020", "authentication:membership_card": "yes", "devices": 1, "ref:chargy": "1412", "socket:type2:output": "22kW", "socket:type2": 2, "capacity": 2}, "geometry": {"type": "Point", "coordinates": [5.991134, 49.615219]}}, {"type": "Feature", "properties": {"operator": "Chargy", "amenity": "charging_station", "name": "Schouweiler - Parking Mairie", "brand": "Chargy", "opening_hours": "24/7", "car": "yes", "phone": "+352 80062020", "authentication:membership_card": "yes", "devices": 1, "ref:chargy": "773", "socket:type2:output": "22kW", "socket:type2": 2, "capacity": 2}, "geometry": {"type": "Point", "coordinates": [5.956461, 49.581759]}}, {"type": "Feature", "properties": {"operator": "Chargy", "amenity": "charging_station", "name": "Manternach - Parking Mairie", "brand": "Chargy", "opening_hours": "24/7", "car": "yes", "phone": "+352 80062020", "authentication:membership_card": "yes", "devices": 1, "ref:chargy": "2602", "socket:type2:output": "22kW", "socket:type2": 2, "capacity": 2}, "geometry": {"type": "Point", "coordinates": [6.423342, 49.70768]}}, {"type": "Feature", "properties": {"operator": "Chargy", "amenity": "charging_station", "name": "Soleuvre - Parking Place de l'Ind\u00e9pendance", "brand": "Chargy", "opening_hours": "24/7", "car": "yes", "phone": "+352 80062020", "authentication:membership_card": "yes", "devices": 1, "ref:chargy": "1940", "socket:type2:output": "22kW", "socket:type2": 2, "capacity": 2}, "geometry": {"type": "Point", "coordinates": [5.936762, 49.522455]}}, {"type": "Feature", "properties": {"operator": "Chargy", "amenity": "charging_station", "name": "Mamer - Parking Hall Sportif Nic Frantz", "brand": "Chargy", "opening_hours": "24/7", "car": "yes", "phone": "+352 80062020", "authentication:membership_card": "yes", "devices": 1, "ref:chargy": "1427", "socket:type2:output": "22kW", "socket:type2": 2, "capacity": 2}, "geometry": {"type": "Point", "coordinates": [6.024143, 49.623185]}}, {"type": "Feature", "properties": {"operator": "Chargy", "amenity": "charging_station", "name": "Ehlerange - Parking Kulturschapp", "brand": "Chargy", "opening_hours": "24/7", "car": "yes", "phone": "+352 80062020", "authentication:membership_card": "yes", "devices": 1, "ref:chargy": "2221", "socket:type2:output": "22kW", "socket:type2": 2, "capacity": 2}, "geometry": {"type": "Point", "coordinates": [5.963388, 49.521972]}}, {"type": "Feature", "properties": {"operator": "Chargy", "amenity": "charging_station", "name": "Belvaux - Parking Boulodrome National", "brand": "Chargy", "opening_hours": "24/7", "car": "yes", "phone": "+352 80062020", "authentication:membership_card": "yes", "devices": 1, "ref:chargy": "1858", "socket:type2:output": "22kW", "socket:type2": 2, "capacity": 2}, "geometry": {"type": "Point", "coordinates": [5.950584, 49.51446]}}, {"type": "Feature", "properties": {"operator": "Chargy", "amenity": "charging_station", "name": "Strassen - Parking Mairie", "brand": "Chargy", "opening_hours": "24/7", "car": "yes", "phone": "+352 80062020", "authentication:membership_card": "yes", "devices": 1, "ref:chargy": "989", "socket:type2:output": "22kW", "socket:type2": 2, "capacity": 2}, "geometry": {"type": "Point", "coordinates": [6.071984, 49.619196]}}, {"type": "Feature", "properties": {"operator": "Chargy", "amenity": "charging_station", "name": "Belvaux - Parking Centre Culturel Metzerlach", "brand": "Chargy", "opening_hours": "24/7", "car": "yes", "phone": "+352 80062020", "authentication:membership_card": "yes", "devices": 1, "ref:chargy": "2599", "socket:type2:output": "22kW", "socket:type2": 2, "capacity": 2}, "geometry": {"type": "Point", "coordinates": [5.94027, 49.514148]}}, {"type": "Feature", "properties": {"operator": "Chargy", "amenity": "charging_station", "name": "Bertrange - Parking Cimeti\u00e8re", "brand": "Chargy", "opening_hours": "24/7", "car": "yes", "phone": "+352 80062020", "authentication:membership_card": "yes", "devices": 1, "ref:chargy": "1096", "socket:type2:output": "22kW", "socket:type2": 2, "capacity": 2}, "geometry": {"type": "Point", "coordinates": [6.056843, 49.611405]}}, {"type": "Feature", "properties": {"operator": "Chargy", "amenity": "charging_station", "name": "Belvaux - Parking Ecole", "brand": "Chargy", "opening_hours": "24/7", "car": "yes", "phone": "+352 80062020", "authentication:membership_card": "yes", "devices": 1, "ref:chargy": "2149", "socket:type2:output": "22kW", "socket:type2": 2, "capacity": 2}, "geometry": {"type": "Point", "coordinates": [5.925222, 49.508771]}}, {"type": "Feature", "properties": {"operator": "Chargy", "amenity": "charging_station", "name": "Berg (Betzdorf) - Parking Mairie", "brand": "Chargy", "opening_hours": "24/7", "car": "yes", "phone": "+352 80062020", "authentication:membership_card": "yes", "devices": 1, "ref:chargy": "778", "socket:type2:output": "22kW", "socket:type2": 2, "capacity": 2}, "geometry": {"type": "Point", "coordinates": [6.358045, 49.683225]}}, {"type": "Feature", "properties": {"operator": "Chargy", "amenity": "charging_station", "name": "Echternach - Parking rue Comt\u00e9 Sigefroi", "brand": "Chargy", "opening_hours": "24/7", "car": "yes", "phone": "+352 80062020", "authentication:membership_card": "yes", "devices": 1, "ref:chargy": "709", "socket:type2:output": "22kW", "socket:type2": 2, "capacity": 2}, "geometry": {"type": "Point", "coordinates": [6.420277, 49.811196]}}, {"type": "Feature", "properties": {"operator": "Chargy", "amenity": "charging_station", "name": "Bertrange - Parking Stade A. Wolff", "brand": "Chargy", "opening_hours": "24/7", "car": "yes", "phone": "+352 80062020", "authentication:membership_card": "yes", "devices": 2, "ref:chargy": "1095;343", "socket:type2:output": "22kW", "socket:type2": 4, "capacity": 4}, "geometry": {"type": "Point", "coordinates": [6.058545, 49.611253]}}, {"type": "Feature", "properties": {"operator": "Chargy", "amenity": "charging_station", "name": "Bertrange - Parking Central", "brand": "Chargy", "opening_hours": "24/7", "car": "yes", "phone": "+352 80062020", "authentication:membership_card": "yes", "devices": 2, "ref:chargy": "971;796", "socket:type2:output": "22kW", "socket:type2": 4, "capacity": 4}, "geometry": {"type": "Point", "coordinates": [6.052428, 49.6107]}}, {"type": "Feature", "properties": {"operator": "Chargy", "amenity": "charging_station", "name": "Bertrange - Parking Tennis", "brand": "Chargy", "opening_hours": "24/7", "car": "yes", "phone": "+352 80062020", "authentication:membership_card": "yes", "devices": 1, "ref:chargy": "994", "socket:type2:output": "22kW", "socket:type2": 2, "capacity": 2}, "geometry": {"type": "Point", "coordinates": [6.054457, 49.609135]}}, {"type": "Feature", "properties": {"operator": "Chargy", "amenity": "charging_station", "name": "Bertrange - Parking Mairie", "brand": "Chargy", "opening_hours": "24/7", "car": "yes", "phone": "+352 80062020", "authentication:membership_card": "yes", "devices": 1, "ref:chargy": "991", "socket:type2:output": "22kW", "socket:type2": 2, "capacity": 2}, "geometry": {"type": "Point", "coordinates": [6.050091, 49.609709]}}, {"type": "Feature", "properties": {"operator": "Chargy", "amenity": "charging_station", "name": "Mamer - Parking Jean Marx", "brand": "Chargy", "opening_hours": "24/7", "car": "yes", "phone": "+352 80062020", "authentication:membership_card": "yes", "devices": 1, "ref:chargy": "761", "socket:type2:output": "22kW", "socket:type2": 2, "capacity": 2}, "geometry": {"type": "Point", "coordinates": [6.021427, 49.626515]}}, {"type": "Feature", "properties": {"operator": "Chargy", "amenity": "charging_station", "name": "Chargy Ok - Banque Degroof Petercam", "brand": "Chargy", "opening_hours": "24/7", "car": "yes", "phone": "+352 80062020", "authentication:membership_card": "yes", "devices": 1, "ref:chargy": "821", "socket:type2:output": "22kW", "socket:type2": 2, "capacity": 2}, "geometry": {"type": "Point", "coordinates": [6.1148805, 49.5864796]}}, {"type": "Feature", "properties": {"operator": "Chargy", "amenity": "charging_station", "name": "Junglinster - Parking Mairie", "brand": "Chargy", "opening_hours": "24/7", "car": "yes", "phone": "+352 80062020", "authentication:membership_card": "yes", "devices": 1, "ref:chargy": "2533", "socket:type2:output": "22kW", "socket:type2": 2, "capacity": 2}, "geometry": {"type": "Point", "coordinates": [6.250202, 49.715862]}}, {"type": "Feature", "properties": {"operator": "Chargy", "amenity": "charging_station", "name": "Hesperange - Parking route de Thionville", "brand": "Chargy", "opening_hours": "24/7", "car": "yes", "phone": "+352 80062020", "authentication:membership_card": "yes", "devices": 1, "ref:chargy": "758", "socket:type2:output": "22kW", "socket:type2": 2, "capacity": 2}, "geometry": {"type": "Point", "coordinates": [6.158136, 49.573437]}}, {"type": "Feature", "properties": {"operator": "Chargy", "amenity": "charging_station", "name": "Howald - Parking rue de la Redoute", "brand": "Chargy", "opening_hours": "24/7", "car": "yes", "phone": "+352 80062020", "authentication:membership_card": "yes", "devices": 1, "ref:chargy": "135", "socket:type2:output": "22kW", "socket:type2": 2, "capacity": 2}, "geometry": {"type": "Point", "coordinates": [6.144612, 49.587027]}}, {"type": "Feature", "properties": {"operator": "Chargy", "amenity": "charging_station", "name": "Howald - Parking av. G-D Jean", "brand": "Chargy", "opening_hours": "24/7", "car": "yes", "phone": "+352 80062020", "authentication:membership_card": "yes", "devices": 1, "ref:chargy": "837", "socket:type2:output": "22kW", "socket:type2": 2, "capacity": 2}, "geometry": {"type": "Point", "coordinates": [6.143362, 49.584116]}}, {"type": "Feature", "properties": {"operator": "Chargy", "amenity": "charging_station", "name": "Fentange - Parking Op der Sterz", "brand": "Chargy", "opening_hours": "24/7", "car": "yes", "phone": "+352 80062020", "authentication:membership_card": "yes", "devices": 1, "ref:chargy": "744", "socket:type2:output": "22kW", "socket:type2": 2, "capacity": 2}, "geometry": {"type": "Point", "coordinates": [6.151721, 49.56587]}}, {"type": "Feature", "properties": {"operator": "Chargy", "amenity": "charging_station", "name": "Alzingen - Parking rue Nicolas Wester", "brand": "Chargy", "opening_hours": "24/7", "car": "yes", "phone": "+352 80062020", "authentication:membership_card": "yes", "devices": 1, "ref:chargy": "815", "socket:type2:output": "22kW", "socket:type2": 2, "capacity": 2}, "geometry": {"type": "Point", "coordinates": [6.1608594, 49.5657071]}}, {"type": "Feature", "properties": {"operator": "Chargy", "amenity": "charging_station", "name": "Alzingen - Parking rue Seitert", "brand": "Chargy", "opening_hours": "24/7", "car": "yes", "phone": "+352 80062020", "authentication:membership_card": "yes", "devices": 1, "ref:chargy": "724", "socket:type2:output": "22kW", "socket:type2": 2, "capacity": 2}, "geometry": {"type": "Point", "coordinates": [6.166388, 49.573571]}}, {"type": "Feature", "properties": {"operator": "Chargy", "amenity": "charging_station", "name": "Itzig - Parking rue de la Lib\u00e9ration", "brand": "Chargy", "opening_hours": "24/7", "car": "yes", "phone": "+352 80062020", "authentication:membership_card": "yes", "devices": 1, "ref:chargy": "639", "socket:type2:output": "22kW", "socket:type2": 2, "capacity": 2}, "geometry": {"type": "Point", "coordinates": [6.17006, 49.587427]}}, {"type": "Feature", "properties": {"operator": "Chargy", "amenity": "charging_station", "name": "Itzig - Parking Eglise", "brand": "Chargy", "opening_hours": "24/7", "car": "yes", "phone": "+352 80062020", "authentication:membership_card": "yes", "devices": 1, "ref:chargy": "843", "socket:type2:output": "22kW", "socket:type2": 2, "capacity": 2}, "geometry": {"type": "Point", "coordinates": [6.171928, 49.58595]}}, {"type": "Feature", "properties": {"operator": "Chargy", "amenity": "charging_station", "name": "Lasauvage - Parking Ecole", "brand": "Chargy", "opening_hours": "24/7", "car": "yes", "phone": "+352 80062020", "authentication:membership_card": "yes", "devices": 1, "ref:chargy": "2650", "socket:type2:output": "22kW", "socket:type2": 2, "capacity": 2}, "geometry": {"type": "Point", "coordinates": [5.834948, 49.523593]}}, {"type": "Feature", "properties": {"operator": "Chargy", "amenity": "charging_station", "name": "Echternach - Parking St. Willibrord", "brand": "Chargy", "opening_hours": "24/7", "car": "yes", "phone": "+352 80062020", "authentication:membership_card": "yes", "devices": 1, "ref:chargy": "757", "socket:type2:output": "22kW", "socket:type2": 2, "capacity": 2}, "geometry": {"type": "Point", "coordinates": [6.420415, 49.813839]}}, {"type": "Feature", "properties": {"operator": "Chargy", "amenity": "charging_station", "name": "Oberkorn - Parking rue Duchscher", "brand": "Chargy", "opening_hours": "24/7", "car": "yes", "phone": "+352 80062020", "authentication:membership_card": "yes", "devices": 1, "ref:chargy": "1918", "socket:type2:output": "22kW", "socket:type2": 2, "capacity": 2}, "geometry": {"type": "Point", "coordinates": [5.902978, 49.514739]}}, {"type": "Feature", "properties": {"operator": "Chargy", "amenity": "charging_station", "name": "Echternach - Parking Douane", "brand": "Chargy", "opening_hours": "24/7", "car": "yes", "phone": "+352 80062020", "authentication:membership_card": "yes", "devices": 1, "ref:chargy": "2633", "socket:type2:output": "22kW", "socket:type2": 2, "capacity": 2}, "geometry": {"type": "Point", "coordinates": [6.425414, 49.812746]}}, {"type": "Feature", "properties": {"operator": "Chargy", "amenity": "charging_station", "name": "Niederkorn - Parking route de P\u00e9tange", "brand": "Chargy", "opening_hours": "24/7", "car": "yes", "phone": "+352 80062020", "authentication:membership_card": "yes", "devices": 1, "ref:chargy": "1886", "socket:type2:output": "22kW", "socket:type2": 2, "capacity": 2}, "geometry": {"type": "Point", "coordinates": [5.889574, 49.54386]}}, {"type": "Feature", "properties": {"operator": "Chargy", "amenity": "charging_station", "name": "Differdange - Parking rue Henri Dunant", "brand": "Chargy", "opening_hours": "24/7", "car": "yes", "phone": "+352 80062020", "authentication:membership_card": "yes", "devices": 1, "ref:chargy": "1816", "socket:type2:output": "22kW", "socket:type2": 2, "capacity": 2}, "geometry": {"type": "Point", "coordinates": [5.88706, 49.523425]}}, {"type": "Feature", "properties": {"operator": "Chargy", "amenity": "charging_station", "name": "Differdange - Parking Place de la R\u00e9sistance", "brand": "Chargy", "opening_hours": "24/7", "car": "yes", "phone": "+352 80062020", "authentication:membership_card": "yes", "devices": 1, "ref:chargy": "2240", "socket:type2:output": "22kW", "socket:type2": 2, "capacity": 2}, "geometry": {"type": "Point", "coordinates": [5.881976, 49.521031]}}, {"type": "Feature", "properties": {"operator": "Chargy", "amenity": "charging_station", "name": "Larochette - Parking rue Osterbour", "brand": "Chargy", "opening_hours": "24/7", "car": "yes", "phone": "+352 80062020", "authentication:membership_card": "yes", "devices": 1, "ref:chargy": "3974", "socket:type2:output": "22kW", "socket:type2": 2, "capacity": 2}, "geometry": {"type": "Point", "coordinates": [6.218813, 49.789212]}}, {"type": "Feature", "properties": {"operator": "Chargy", "amenity": "charging_station", "name": "Nommern - Parking Ecole", "brand": "Chargy", "opening_hours": "24/7", "car": "yes", "phone": "+352 80062020", "authentication:membership_card": "yes", "devices": 1, "ref:chargy": "3961", "socket:type2:output": "22kW", "socket:type2": 2, "capacity": 2}, "geometry": {"type": "Point", "coordinates": [6.17401, 49.795347]}}, {"type": "Feature", "properties": {"operator": "Chargy", "amenity": "charging_station", "name": "Christnach - Parking Terrain Football", "brand": "Chargy", "opening_hours": "24/7", "car": "yes", "phone": "+352 80062020", "authentication:membership_card": "yes", "devices": 1, "ref:chargy": "2635", "socket:type2:output": "22kW", "socket:type2": 2, "capacity": 2}, "geometry": {"type": "Point", "coordinates": [6.276361, 49.791028]}}, {"type": "Feature", "properties": {"operator": "Chargy", "amenity": "charging_station", "name": "Erpeldange - Parking Porte des Ardennes", "brand": "Chargy", "opening_hours": "24/7", "car": "yes", "phone": "+352 80062020", "authentication:membership_card": "yes", "devices": 1, "ref:chargy": "3963", "socket:type2:output": "22kW", "socket:type2": 2, "capacity": 2}, "geometry": {"type": "Point", "coordinates": [6.112938, 49.861554]}}]}